     2              NAVIGATION DATA                         RINEX VERSION / TYPE
CCRINEXN V1.6.0 UX  CDDIS               20-JAN-16 19:39     PGM / RUN BY / DATE 
IGS BROADCAST EPHEMERIS FILE                                COMMENT             
    0.1118D-07 -0.7451D-08 -0.5960D-07  0.1192D-06          ION ALPHA           
    0.1147D+06 -0.1638D+06 -0.1966D+06  0.9175D+06          ION BETA            
   -0.186264514923D-08-0.888178419700D-14   589824     1880 DELTA-UTC: A0,A1,T,W
    17                                                      LEAP SECONDS        
                                                            END OF HEADER       
20 16  1 20 14  0  0.0 0.387042295188D-03 0.272848410532D-11 0.000000000000D+00
    0.230000000000D+02-0.375000000000D+01 0.584167203499D-08-0.124264704535D+00
   -0.502914190292D-07 0.496015383396D-02 0.539980828762D-05 0.515367705345D+04
    0.309600000000D+06-0.279396772385D-07 0.105612172501D+01-0.130385160446D-07
    0.925950130317D+00 0.256593750000D+03 0.131934896084D+01-0.876643646564D-08
    0.464305070086D-11 0.100000000000D+01 0.188000000000D+04 0.000000000000D+00
    0.200000000000D+01 0.000000000000D+00-0.838190317154D-08 0.230000000000D+02
    0.302430000000D+06 0.000000000000D+00 0.000000000000D+00 0.000000000000D+00
21 16  1 20 14  0  0.0-0.506218057126D-03-0.204636307899D-11 0.000000000000D+00
    0.840000000000D+02-0.559375000000D+01 0.496520682079D-08 0.305502565682D+01
   -0.506639480591D-06 0.229679940967D-01 0.982172787190D-05 0.515368731499D+04
    0.309600000000D+06 0.273808836937D-06 0.659328883580D-01-0.204890966415D-06
    0.935870294846D+00 0.173156250000D+03-0.184015400130D+01-0.780425364992D-08
    0.543951229181D-09 0.100000000000D+01 0.188000000000D+04 0.000000000000D+00
    0.200000000000D+01 0.000000000000D+00-0.116415321827D-07 0.840000000000D+02
    0.302418000000D+06 0.400000000000D+01 0.000000000000D+00 0.000000000000D+00
22 16  1 20 14  0  0.0 0.408955384046D-03-0.488853402203D-11 0.000000000000D+00
    0.140000000000D+02-0.428125000000D+01 0.601203613972D-08 0.123802165680D+01
   -0.204890966415D-06 0.756922177970D-02 0.570155680180D-05 0.515509264946D+04
    0.309600000000D+06-0.175088644028D-06 0.110892215577D+01 0.447034835815D-07
    0.922519637160D+00 0.253375000000D+03-0.202753128855D+01-0.880786688301D-08
   -0.467876631797D-10 0.000000000000D+00 0.188000000000D+04 0.000000000000D+00
    0.200000000000D+01 0.000000000000D+00-0.176951289177D-07 0.140000000000D+02
    0.302400000000D+06 0.400000000000D+01 0.000000000000D+00 0.000000000000D+00
24 16  1 20 14  0  0.0-0.110496766865D-04-0.568434188608D-12 0.000000000000D+00
    0.760000000000D+02 0.109718750000D+03 0.447340076093D-08-0.126015124053D+01
    0.572949647903D-05 0.412594457157D-02 0.774674117565D-05 0.515364367867D+04
    0.309600000000D+06 0.316649675369D-07-0.307310405320D+01-0.819563865662D-07
    0.951264087328D+00 0.226343750000D+03 0.339671094036D+00-0.808462274904D-08
    0.735744937197D-10 0.100000000000D+01 0.188000000000D+04 0.000000000000D+00
    0.200000000000D+01 0.000000000000D+00 0.232830643654D-08 0.760000000000D+02
    0.305820000000D+06 0.000000000000D+00 0.000000000000D+00 0.000000000000D+00
25 16  1 20 14  0  0.0-0.102731399238D-03-0.648014975013D-11 0.000000000000D+00
    0.920000000000D+02-0.559375000000D+01 0.421803303397D-08 0.306516449835D+01
   -0.283122062683D-06 0.499013625085D-02 0.176019966602D-05 0.515356878281D+04
    0.309600000000D+06 0.000000000000D+00-0.200432237264D+01-0.596046447754D-07
    0.978458602123D+00 0.355187500000D+03 0.692365624630D+00-0.816569745155D-08
    0.342871425696D-10 0.100000000000D+01 0.188000000000D+04 0.000000000000D+00
    0.200000000000D+01 0.000000000000D+00 0.558793544769D-08 0.920000000000D+02
    0.302430000000D+06 0.000000000000D+00 0.000000000000D+00 0.000000000000D+00
26 16  1 20 14  0  0.0-0.219333916902D-03-0.164845914696D-10 0.000000000000D+00
    0.370000000000D+02-0.843750000000D+01 0.476269838550D-08 0.261670143424D+01
   -0.398606061935D-06 0.734253320843D-03 0.108219683170D-05 0.515369828796D+04
    0.309600000000D+06-0.428408384323D-07-0.201105469678D+01 0.745058059692D-08
    0.960493867168D+00 0.357593750000D+03-0.220262410013D+00-0.855428489173D-08
    0.678599694973D-11 0.100000000000D+01 0.188000000000D+04 0.000000000000D+00
    0.200000000000D+01 0.000000000000D+00 0.698491930962D-08 0.370000000000D+02
    0.302418000000D+06 0.400000000000D+01 0.000000000000D+00 0.000000000000D+00
27 16  1 20 14  0  0.0 0.551342964172D-04 0.352429196937D-11 0.000000000000D+00
    0.680000000000D+02-0.123625000000D+03 0.414802992495D-08 0.638065914967D+00
   -0.642798841000D-05 0.306521810126D-02 0.870414078236D-05 0.515363921547D+04
    0.309600000000D+06 0.353902578354D-07-0.961594040080D+00 0.465661287308D-07
    0.969966699143D+00 0.216468750000D+03 0.212814395637D+00-0.797533220460D-08
   -0.107147320259D-09 0.000000000000D+00 0.188000000000D+04 0.000000000000D+00
    0.200000000000D+01 0.000000000000D+00 0.139698386192D-08 0.680000000000D+02
    0.302400000000D+06 0.400000000000D+01 0.000000000000D+00 0.000000000000D+00
28 16  1 20 14  0  0.0 0.496668741107D-03 0.272848410532D-11 0.000000000000D+00
    0.340000000000D+02-0.175625000000D+02 0.415981613018D-08 0.136259719339D+01
   -0.131689012051D-05 0.200354070403D-01 0.179558992386D-05 0.515362083054D+04
    0.309600000000D+06-0.145286321640D-06-0.193104977559D+01-0.407919287682D-06
    0.989288915283D+00 0.361500000000D+03-0.162897206424D+01-0.831070331701D-08
   -0.228580949885D-10 0.000000000000D+00 0.188000000000D+04 0.000000000000D+00
    0.200000000000D+01 0.000000000000D+00-0.107102096081D-07 0.340000000000D+02
    0.302400000000D+06 0.400000000000D+01 0.000000000000D+00 0.000000000000D+00
29 16  1 20 14  0  0.0 0.652232207358D-03 0.113686837722D-11 0.000000000000D+00
    0.400000000000D+02-0.100750000000D+03 0.400123800759D-08-0.308920810265D+01
   -0.525265932083D-05 0.100131600630D-02 0.873208045959D-05 0.515363136101D+04
    0.309600000000D+06-0.372529029846D-08-0.902826735134D+00 0.260770320892D-07
    0.975995908273D+00 0.216312500000D+03-0.584094767926D+00-0.781961162488D-08
   -0.167864142725D-10 0.100000000000D+01 0.188000000000D+04 0.000000000000D+00
    0.200000000000D+01 0.000000000000D+00-0.102445483208D-07 0.400000000000D+02
    0.302760000000D+06 0.000000000000D+00 0.000000000000D+00 0.000000000000D+00
30 16  1 20 14  0  0.0 0.866423361003D-04 0.466116034659D-11 0.000000000000D+00
    0.690000000000D+02 0.127843750000D+03 0.452197390644D-08-0.219907864063D+01
    0.656396150589D-05 0.166410324164D-02 0.727362930775D-05 0.515365182114D+04
    0.309600000000D+06-0.372529029846D-07-0.298223151590D+01-0.223517417908D-07
    0.953925925290D+00 0.236031250000D+03 0.306828052702D+01-0.813783884723D-08
    0.186079179842D-09 0.100000000000D+01 0.188000000000D+04 0.000000000000D+00
    0.200000000000D+01 0.000000000000D+00 0.325962901115D-08 0.690000000000D+02
    0.302430000000D+06 0.000000000000D+00 0.000000000000D+00 0.000000000000D+00
31 16  1 20 14  0  0.0 0.286228489131D-03-0.159161572810D-11 0.000000000000D+00
    0.119000000000D+03 0.133687500000D+03 0.407909848225D-08-0.225531698447D+01
    0.693462789059D-05 0.834990537260D-02 0.747665762901D-05 0.515368608093D+04
    0.309600000000D+06-0.745058059692D-07-0.301939960051D+01 0.428408384323D-07
    0.972998950889D+00 0.246906250000D+03-0.451157172576D+00-0.794354516626D-08
    0.187507810453D-09 0.100000000000D+01 0.188000000000D+04 0.000000000000D+00
    0.200000000000D+01 0.000000000000D+00-0.135041773319D-07 0.119000000000D+03
    0.302418000000D+06 0.400000000000D+01 0.000000000000D+00 0.000000000000D+00
32 16  1 20 14  0  0.0 0.873301178217D-04 0.129602995003D-10 0.000000000000D+00
    0.410000000000D+02-0.107500000000D+02 0.537700968832D-08-0.182460324502D+01
   -0.534579157829D-06 0.113410291960D-01 0.567547976971D-05 0.515361972237D+04
    0.309600000000D+06 0.117346644402D-06 0.121550418619D+01-0.173225998878D-06
    0.946427993222D+00 0.261406250000D+03 0.213641481242D+00-0.839142096494D-08
    0.103575742917D-10 0.000000000000D+00 0.188000000000D+04 0.000000000000D+00
    0.200000000000D+01 0.000000000000D+00-0.372529029846D-08 0.410000000000D+02
    0.302400000000D+06 0.400000000000D+01 0.000000000000D+00 0.000000000000D+00
 7 16  1 20 15 59 44.0 0.473015476018D-03-0.147792889038D-11 0.000000000000D+00
    0.130000000000D+02 0.134875000000D+03 0.418053127876D-08-0.118467854634D+01
    0.686943531036D-05 0.903522456065D-02 0.773556530476D-05 0.515368317223D+04
    0.316784000000D+06 0.236555933952D-06-0.302823237364D+01-0.145286321640D-06
    0.968152709984D+00 0.234687500000D+03-0.268007175972D+01-0.795783147562D-08
    0.118933525487D-09 0.000000000000D+00 0.188000000000D+04 0.000000000000D+00
    0.200000000000D+01 0.000000000000D+00-0.111758708954D-07 0.130000000000D+02
    0.309630000000D+06 0.400000000000D+01 0.000000000000D+00 0.000000000000D+00
 8 16  1 20 15 59 44.0-0.207517296076D-04-0.136424205266D-11 0.000000000000D+00
    0.600000000000D+01-0.121750000000D+03 0.423446209663D-08 0.288759281012D+01
   -0.634044408798D-05 0.174738687929D-02 0.873021781444D-05 0.515364626885D+04
    0.316784000000D+06 0.428408384323D-07-0.963330627707D+00-0.558793544769D-08
    0.961883114155D+00 0.209437500000D+03-0.145778084347D+01-0.800676208521D-08
   -0.846463830045D-10 0.100000000000D+01 0.188000000000D+04 0.000000000000D+00
    0.200000000000D+01 0.000000000000D+00 0.465661287308D-08 0.600000000000D+01
    0.311400000000D+06 0.400000000000D+01 0.000000000000D+00 0.000000000000D+00
